[{"OBJECT_NAME":"IRIDIUM 102","OBJECT_ID":"2017-003D","EPOCH":"2026-03-09T16:58:10.285536","MEAN_MOTION":14.3421763,"ECCENTRICITY":0.00022591,"INCLINATION":86.3971,"RA_OF_ASC_NODE":130.0382,"ARG_OF_PERICENTER":95.9369,"MEAN_ANOMALY":264.2084,"EPHEMERIS_TYPE":0,"CLASSIFICATION_TYPE":"U","NORAD_CAT_ID":41920,"ELEMENT_SET_NO":999,"REV_AT_EPOCH":47902,"BSTAR":3.634738e-6,"MEAN_MOTION_DOT":3.0e-7,"MEAN_MOTION_DDOT":0},{"OBJECT_NAME":"FENGYUN 1C DEB","OBJECT_ID":"1999-025ATS","EPOCH":"2026-03-09T04:07:14.664000","MEAN_MOTION":14.18896338,"ECCENTRICITY":0.00726692,"INCLINATION":98.9806,"RA_OF_ASC_NODE":141.7164,"ARG_OF_PERICENTER":72.4392,"MEAN_ANOMALY":343.1127,"EPHEMERIS_TYPE":0,"CLASSIFICATION_TYPE":"U","NORAD_CAT_ID":30756,"ELEMENT_SET_NO":999,"REV_AT_EPOCH":97630,"BSTAR":0.001385565,"MEAN_MOTION_DOT":2.918e-5,"MEAN_MOTION_DDOT":0}]
